$$SOE
2459580.500000000, A.D. 2022-Jan-01 00:00:00.0000, 1.284997117341454E+08, -1.050943573838497E+08, -3.322498878747920E+07,
2459587.500000000, A.D. 2022-Jan-08 00:00:00.0000, 1.406335331666600E+08, -9.542022658561289E+07, -2.674013433341821E+07,
2459594.500000000, A.D. 2022-Jan-15 00:00:00.0000, 1.514281717533987E+08, -8.483609711730075E+07, -1.999996959151743E+07,
2459601.500000000, A.D. 2022-Jan-22 00:00:00.0000, 1.608459625003225E+08, -7.347945334542881E+07, -1.307738372264129E+07,
2459608.500000000, A.D. 2022-Jan-29 00:00:00.0000, 1.688643755759214E+08, -6.148255097398523E+07, -6.040535860989530E+06,
2459615.500000000, A.D. 2022-Feb-05 00:00:00.0000, 1.754737278461765E+08, -4.897177886160926E+07, 1.047131827842399E+06,
2459622.500000000, A.D. 2022-Feb-12 00:00:00.0000, 1.806751741422425E+08, -3.606736356118509E+07, 8.126752755173680E+06,
2459629.500000000, A.D. 2022-Feb-19 00:00:00.0000, 1.844789784784991E+08, -2.288332445379069E+07, 1.514381077735269E+07,
2459636.500000000, A.D. 2022-Feb-26 00:00:00.0000, 1.869030508869584E+08, -9.527607651590789E+06, 2.204786514011764E+07,
2459643.500000000, A.D. 2022-Mar-05 00:00:00.0000, 1.879717289817367E+08, 3.897657774482358E+06, 2.879225044032303E+07,
2459650.500000000, A.D. 2022-Mar-12 00:00:00.0000, 1.877147799018176E+08, 1.729582505447304E+07, 3.533376960770265E+07,
2459657.500000000, A.D. 2022-Mar-19 00:00:00.0000, 1.861665975204593E+08, 3.057534959349693E+07, 4.163239255092917E+07,
2459664.500000000, A.D. 2022-Mar-26 00:00:00.0000, 1.833655709284142E+08, 4.364938801581272E+07, 4.765096908910708E+07,
2459671.500000000, A.D. 2022-Apr-02 00:00:00.0000, 1.793536023992868E+08, 5.643539430656380E+07, 5.335496186249040E+07,
2459678.500000000, A.D. 2022-Apr-09 00:00:00.0000, 1.741757558707336E+08, 6.885472609332281E+07, 5.871220285921860E+07,
2459685.500000000, A.D. 2022-Apr-16 00:00:00.0000, 1.678800197718166E+08, 8.083227112820119E+07, 6.369267584263244E+07,
2459692.500000000, A.D. 2022-Apr-23 00:00:00.0000, 1.605171689851438E+08, 9.229610198642720E+07, 6.826832625643617E+07,
2459699.500000000, A.D. 2022-Apr-30 00:00:00.0000, 1.521407126588362E+08, 1.031771620922134E+08, 7.241289959137879E+07,
2459706.500000000, A.D. 2022-May-07 00:00:00.0000, 1.428069217494398E+08, 1.134089854180723E+08, 7.610180862103151E+07,
2459713.500000000, A.D. 2022-May-14 00:00:00.0000, 1.325749303068814E+08, 1.229274568308865E+08, 7.931203049740921E+07,
2459720.500000000, A.D. 2022-May-21 00:00:00.0000, 1.215069026716406E+08, 1.316706179267542E+08, 8.202203511792177E+07,
2459727.500000000, A.D. 2022-May-28 00:00:00.0000, 1.096682615816637E+08, 1.395785220071122E+08, 8.421174634612814E+07,
2459734.500000000, A.D. 2022-Jun-04 00:00:00.0000, 9.712797384800349E+07, 1.465931434002890E+08, 8.586253822818565E+07,
2459741.500000000, A.D. 2022-Jun-11 00:00:00.0000, 8.395889063890271E+07, 1.526583479227366E+08, 8.695726908323610E+07,
2459748.500000000, A.D. 2022-Jun-18 00:00:00.0000, 7.023813936952065E+07, 1.577199329222422E+08, 8.748035716853476E+07,
2459755.500000000, A.D. 2022-Jun-25 00:00:00.0000, 5.604756370502670E+07, 1.617257472974326E+08, 8.741790252897127E+07,
2459762.500000000, A.D. 2022-Jul-02 00:00:00.0000, 4.147420713069484E+07, 1.646259042127699E+08, 8.675786061949128E+07,
2459769.500000000, A.D. 2022-Jul-09 00:00:00.0000, 2.661083377648975E+07, 1.663731021722648E+08, 8.549027432437037E+07,
2459776.500000000, A.D. 2022-Jul-16 00:00:00.0000, 1.155647662062591E+07, 1.669230740265401E+08, 8.360757215486887E+07,
2459783.500000000, A.D. 2022-Jul-23 00:00:00.0000, -3.583003421444998E+06, 1.662351856497147E+08, 8.110494142879909E+07,
2459790.500000000, A.D. 2022-Jul-30 00:00:00.0000, -1.869436806380482E+07, 1.642732056419041E+08, 7.798078528491810E+07,
2459797.500000000, A.D. 2022-Aug-06 00:00:00.0000, -3.365648751395006E+07, 1.610062742200774E+08, 7.423727261564192E+07,
2459804.500000000, A.D. 2022-Aug-13 00:00:00.0000, -4.833990274910491E+07, 1.564101034145287E+08, 6.988098994224277E+07,
2459811.500000000, A.D. 2022-Aug-20 00:00:00.0000, -6.260652030849346E+07, 1.504684372950886E+08, 6.492370192371213E+07,
2459818.500000000, A.D. 2022-Aug-27 00:00:00.0000, -7.630951167894562E+07, 1.431747975711961E+08, 5.938322300010981E+07,
2459825.500000000, A.D. 2022-Sep-03 00:00:00.0000, -8.929350989491585E+07, 1.345345325512016E+08, 5.328439580676559E+07,
2459832.500000000, A.D. 2022-Sep-10 00:00:00.0000, -1.013952191608770E+08, 1.245671723872693E+08, 4.666016104062829E+07,
2459839.500000000, A.D. 2022-Sep-17 00:00:00.0000, -1.124445767602128E+08, 1.133090680007241E+08, 3.955268721830060E+07,
2459846.500000000, A.D. 2022-Sep-24 00:00:00.0000, -1.222666265924014E+08, 1.008162519369436E+08, 3.201450676931283E+07,
2459853.500000000, A.D. 2022-Oct-01 00:00:00.0000, -1.306842739953268E+08, 8.716740481792198E+07, 2.410957745460254E+07,
2459860.500000000, A.D. 2022-Oct-08 00:00:00.0000, -1.375220827938690E+08, 7.246674140498272E+07, 1.591415538663169E+07,
2459867.500000000, A.D. 2022-Oct-15 00:00:00.0000, -1.426112376263217E+08, 5.684654701635422E+07, 7.517329896766108E+06,
2459874.500000000, A.D. 2022-Oct-22 00:00:00.0000, -1.457957134368740E+08, 4.046900214700532E+07, -9.789626558469292E+05,
2459881.500000000, A.D. 2022-Oct-29 00:00:00.0000, -1.469395531680195E+08, 2.352685364903923E+07, -9.460648698898202E+06,
2459888.500000000, A.D. 2022-Nov-05 00:00:00.0000, -1.459349623953580E+08, 6.242455901022555E+06, -1.780314509801406E+07,
2459895.500000000, A.D. 2022-Nov-12 00:00:00.0000, -1.427106986008179E+08, -1.113526527741229E+07, -2.587404953670368E+07,
2459902.500000000, A.D. 2022-Nov-19 00:00:00.0000, -1.372399917954220E+08, -2.833624127986703E+07, -3.353693852753113E+07,
2459909.500000000, A.D. 2022-Nov-26 00:00:00.0000, -1.295470478183114E+08, -4.507714256075390E+07, -4.065616712273795E+07,
2459916.500000000, A.D. 2022-Dec-03 00:00:00.0000, -1.197111315284399E+08, -6.107141614115117E+07, -4.710238092055584E+07,
2459923.500000000, A.D. 2022-Dec-10 00:00:00.0000, -1.078673676605482E+08, -7.604077834793366E+07, -5.275827317709111E+07,
2459930.500000000, A.D. 2022-Dec-17 00:00:00.0000, -9.420375265089154E+07, -8.972711142653760E+07, -5.752399836025076E+07,
2459937.500000000, A.D. 2022-Dec-24 00:00:00.0000, -7.895439364704381E+07, -1.019035217857796E+08, -6.132163455298443E+07,
2459944.500000000, A.D. 2022-Dec-31 00:00:00.0000, -6.238956621884250E+07, -1.123833633058604E+08, -6.409819193723334E+07,
2459951.500000000, A.D. 2023-Jan-07 00:00:00.0000, -4.480366290686001E+07, -1.210263186479539E+08, -6.582687575079802E+07,
2459958.500000000, A.D. 2023-Jan-14 00:00:00.0000, -2.650236739489392E+07, -1.277410956123644E+08, -6.650657684371065E+07,
2459965.500000000, A.D. 2023-Jan-21 00:00:00.0000, -7.790375461526759E+06, -1.324848122182041E+08, -6.615981346910687E+07,
2459972.500000000, A.D. 2023-Jan-28 00:00:00.0000, 1.103927182204669E+07, -1.352595759641373E+08, -6.482952562476932E+07,
2459979.500000000, A.D. 2023-Feb-04 00:00:00.0000, 2.971356662564807E+07, -1.361070305589051E+08, -6.257519948281780E+07,
2459986.500000000, A.D. 2023-Feb-11 00:00:00.0000, 4.798536689629772E+07, -1.351017309649542E+08, -5.946878091422862E+07,
2459993.500000000, A.D. 2023-Feb-18 00:00:00.0000, 6.563678091744409E+07, -1.323441369031415E+08, -5.559075167821494E+07,
2460000.500000000, A.D. 2023-Feb-25 00:00:00.0000, 8.248044176237793E+07, -1.279538468714864E+08, -5.102662536931073E+07,
2460007.500000000, A.D. 2023-Mar-04 00:00:00.0000, 9.835912829838784E+07, -1.220634925283094E+08, -4.586400399001547E+07,
2460014.500000000, A.D. 2023-Mar-11 00:00:00.0000, 1.131442097111423E+08, -1.148135231302377E+08, -4.019023969415416E+07,
2460021.500000000, A.D. 2023-Mar-18 00:00:00.0000, 1.267333456455404E+08, -1.063479572598263E+08, -3.409067776230875E+07,
2460028.500000000, A.D. 2023-Mar-25 00:00:00.0000, 1.390477961665154E+08, -9.681107243063766E+07, -2.764741578831878E+07,
2460035.500000000, A.D. 2023-Apr-01 00:00:00.0000, 1.500296089488461E+08, -8.634493878019567E+07, -2.093849514333574E+07,
2460042.500000000, A.D. 2023-Apr-08 00:00:00.0000, 1.596388689387230E+08, -7.508767173937532E+07, -1.403743712003678E+07,
2460049.500000000, A.D. 2023-Apr-15 00:00:00.0000, 1.678511264064803E+08, -6.317227350181250E+07, -7.013042213101324E+06,
2460056.500000000, A.D. 2023-Apr-22 00:00:00.0000, 1.746550715597200E+08, -5.072594207092400E+07, 7.061755175039545E+04,
2460063.500000000, A.D. 2023-Apr-29 00:00:00.0000, 1.800504875561084E+08, -3.786973594828813E+07, 7.154071169002656E+06,
2460070.500000000, A.D. 2023-May-06 00:00:00.0000, 1.840464842083079E+08, -2.471850043772909E+07, 1.418223225211054E+07,
2460077.500000000, A.D. 2023-May-13 00:00:00.0000, 1.866599998241753E+08, -1.138098160387178E+07, 2.110412879110032E+07,
2460084.500000000, A.D. 2023-May-20 00:00:00.0000, 1.879145510724330E+08, 2.039930682282880E+06, 2.787260509379852E+07,
2460091.500000000, A.D. 2023-May-27 00:00:00.0000, 1.878392067066737E+08, 1.544687610888414E+07, 3.444401475751719E+07,
2460098.500000000, A.D. 2023-Jun-03 00:00:00.0000, 1.864677599321254E+08, 2.874764813900205E+07, 4.077791794618373E+07,
2460105.500000000, A.D. 2023-Jun-10 00:00:00.0000, 1.838380751604328E+08, 4.185479464055850E+07, 4.683679205123836E+07,
2460112.500000000, A.D. 2023-Jun-17 00:00:00.0000, 1.799915870347684E+08, 5.468521361645818E+07, 5.258576175009403E+07,
2460119.500000000, A.D. 2023-Jun-24 00:00:00.0000, 1.749729324287714E+08, 6.715975767630157E+07, 5.799235231262322E+07,
2460126.500000000, A.D. 2023-Jul-01 00:00:00.0000, 1.688296987551156E+08, 7.920285786933076E+07, 6.302626858639564E+07,
2460133.500000000, A.D. 2023-Jul-08 00:00:00.0000, 1.616122726176143E+08, 9.074217491181059E+07, 6.765920133429049E+07,
2460140.500000000, A.D. 2023-Jul-15 00:00:00.0000, 1.533737758282043E+08, 1.017082804756493E+08, 7.186466184860264E+07,
2460147.500000000, A.D. 2023-Jul-22 00:00:00.0000, 1.441700828356110E+08, 1.120343718730228E+08, 7.561784525919013E+07,
$$EOE